IRIDIUM 144             
1 43249U 18030A   24153.61443811  .00000335  00000+0  11254-3 0  9993
2 43249  86.3997 241.9667 0002624 107.1099 253.0384 14.34215466323270
IRIDIUM 149             
1 43250U 18030B   24153.34170662  .00000092  00000+0  25912-4 0  9993
2 43250  86.3984 242.0544 0002349  97.2141 262.9322 14.34218124323258
IRIDIUM 157             
1 43251U 18030C   24153.50027116  .00000098  00000+0  28088-4 0  9990
2 43251  86.3986 242.0248 0002477  90.6068 269.5411 14.34217343323253
IRIDIUM 140             
1 43252U 18030D   24154.28675219  .00000010  00000+0 -36652-5 0  9992
2 43252  86.3987 241.7109 0001800 103.5128 256.6268 14.34217546323428
IRIDIUM 145             
1 43253U 18030E   24154.34383659  .00000034  00000+0  52309-5 0  9996
2 43253  86.3985 241.6609 0002430 102.3876 257.7592 14.34217809323365
IRIDIUM 146             
1 43254U 18030F   24153.34804906  .00000310  00000+0  10364-3 0  9999
2 43254  86.3985 242.0917 0002307 100.1615 259.9841 14.34219121323239
IRIDIUM 148             
1 43255U 18030G   24154.22333663  .00000330  00000+0  11066-3 0  9997
2 43255  86.3985 241.7575 0002461  94.4148 265.7329 14.34215283323403
IRIDIUM 142             
1 43256U 18030H   24154.19161525  .00000030  00000+0  36165-5 0  9996
2 43256  86.3986 241.6873 0002290 103.2035 256.9417 14.34217952323358
